GEOSCAN 3 (RS92S3)      
1 64893U 25155T   26194.84044748  .00010788  00000+0  30693-3 0  9996
2 64893  97.4545 165.0472 0008632  90.8300 269.3933 15.36278499 84944
INNOSAT 3 (RS92S0)      
1 64894U 25155U   26194.87054080  .00026215  00000+0  54216-3 0  9999
2 64894  97.4490 167.0454 0008315  93.8047 266.4153 15.45750424 85086
KNACKSAT-2              
1 67683U 98067XZ  26194.27582286  .00036553  00000+0  40980-3 0  9997
2 67683  51.6258 163.0209 0008057 321.9354  38.1070 15.62269029 24352
