OBJECT_NAME,OBJECT_ID,EPOCH,MEAN_MOTION,ECCENTRICITY,INCLINATION,RA_OF_ASC_NODE,ARG_OF_PERICENTER,MEAN_ANOMALY,EPHEMERIS_TYPE,CLASSIFICATION_TYPE,NORAD_CAT_ID,ELEMENT_SET_NO,REV_AT_EPOCH,BSTAR,MEAN_MOTION_DOT,MEAN_MOTION_DDOT
GEOSCAN 3 (RS92S3),2025-155T,2026-07-13T20:10:14.662272,15.36278499,.0008632,97.4545,165.0472,90.8300,269.3933,0,U,64893,999,8494,.30693E-3,.10788E-3,0
INNOSAT 3 (RS92S0),2025-155U,2026-07-13T20:53:34.725120,15.45750424,.0008315,97.4490,167.0454,93.8047,266.4153,0,U,64894,999,8508,.54216E-3,.26215E-3,0
KNACKSAT-2,1998-067XZ,2026-07-13T06:37:11.095104,15.62269029,.0008057,51.6258,163.0209,321.9354,38.1070,0,U,67683,999,2435,.4098E-3,.36553E-3,0
